COSMOS 2413 (712)       
1 28509U 04053B   16067.98945773  .00000011  00000-0  00000+0 0  9999
2 28509  63.1310 193.7020 0005430 167.0039  91.0196  2.13101700 87141
COSMOS 2419 (714)       
1 28915U 05050A   16068.35228787  .00000052  00000-0  00000+0 0  9994
2 28915  65.2771  81.5681 0016525 343.7079 193.4016  2.13109304 79403
COSMOS 2425 (716)       
1 29670U 06062A   16067.83140208 -.00000004  00000-0  10000-3 0  9993
2 29670  65.6750 320.5620 0023393 346.6334 211.5821  2.13104999 71592
COSMOS 2426 (717)       
1 29671U 06062B   16068.14032201 -.00000004  00000-0  10000-3 0  9992
2 29671  65.6918 320.6314 0015016 163.0989 133.7489  2.13103097 71605
COSMOS 2424 (715)       
1 29672U 06062C   16067.16987757 -.00000005  00000-0  10000-3 0  9990
2 29672  65.6776 320.5944 0014428 161.9595 286.9781  2.13102119 71589
COSMOS 2433 (720)       
1 32275U 07052A   16067.45539088  .00000058  00000-0  10000-3 0  9992
2 32275  65.2923  81.3671 0005070 273.7709 187.8864  2.13105037 65107
COSMOS 2432 (719)       
1 32276U 07052B   16067.66506779  .00000057  00000-0  10000-3 0  9996
2 32276  65.3045  81.4241 0013536 328.5770 247.9679  2.13104298 65101
COSMOS 2434 (721)       
1 32393U 07065A   16068.42093375 -.00000004  00000-0  00000+0 0  9996
2 32393  65.2936 319.9135 0003853  79.4100 295.8008  2.13102828 63833
COSMOS 2436 (723)       
1 32395U 07065C   16068.41511674 -.00000004  00000-0  10000-3 0  9999
2 32395  65.3065 319.9544 0019040 354.7009 108.0498  2.13102917 63764
COSMOS 2443 (725)       
1 33379U 08046B   16068.05971245  .00000054  00000-0  10000-3 0  9990
2 33379  65.2211  80.7734 0017566 193.4522 278.1483  2.13101532 57984
COSMOS 2456 (730)       
1 36111U 09070A   16067.81594642  .00000015  00000-0  00000+0 0  9992
2 36111  64.1861 199.5364 0003511 339.4963 100.6604  2.13102892 48483
COSMOS 2457 (733)       
1 36112U 09070B   16068.04258171  .00000015  00000-0  00000+0 0  9993
2 36112  64.1680 199.4579 0007254 151.3772 233.3883  2.13101579 48492
COSMOS 2458 (734)       
1 36113U 09070C   16068.15742668  .00000015  00000-0  10000-3 0  9990
2 36113  64.1739 199.4589 0002433  57.4385 102.7671  2.13102064 48493
COSMOS 2459 (731)       
1 36400U 10007A   16068.07306035  .00000053  00000-0  10000-3 0  9998
2 36400  65.2001  80.5101 0029384 348.4092  93.3309  2.13102415 46848
COSMOS 2461 (735)       
1 36401U 10007B   16068.29412826  .00000051  00000-0  10000-3 0  9997
2 36401  65.1932  80.4850 0004156  51.4856 110.3944  2.13102395 46842
COSMOS 2460 (732)       
1 36402U 10007C   16068.28288294  .00000051  00000-0  10000-3 0  9997
2 36402  65.1835  80.4636 0002581 286.0802 269.2233  2.13102028 46842
COSMOS 2466 (738)       
1 37137U 10041A   16067.46090068 -.00000005  00000-0  10000-3 0  9990
2 37137  64.8770 320.0985 0018339 153.9447  69.0470  2.13111100 42900
COSMOS 2465 (737)       
1 37138U 10041B   16068.38318517 -.00000005  00000-0  00000+0 0  9990
2 37138  64.8941 320.1387 0032965 167.7416 224.5682  2.13101213 42927
COSMOS 2464 (736)       
1 37139U 10041C   16067.35198670 -.00000005  00000-0  00000+0 0  9993
2 37139  64.9032 320.1673 0025326  12.9968 129.8239  2.13099926 42904
COSMOS 2471 (701K)      
1 37372U 11009A   16067.49689329  .00000056  00000-0  00000+0 0  9993
2 37372  65.1806  80.4398 0009170 243.9038 200.6765  2.13102963 39104
COSMOS 2474 (742)       
1 37829U 11055A   16067.43485128  .00000015  00000-0  00000+0 0  9991
2 37829  64.5104 199.9197 0006256 248.5367 121.1139  2.13101910 34474
COSMOS 2476 (744)       
1 37867U 11064A   16067.45927975  .00000015  00000-0  00000+0 0  9996
2 37867  64.4906 200.0028 0015150 245.1413 189.0378  2.13102032 33822
COSMOS 2477 (745)       
1 37868U 11064B   16068.02629421  .00000016  00000-0  00000+0 0  9997
2 37868  64.4984 200.0227 0013088 246.4628  82.0832  2.13101861 33781
COSMOS 2475 (743)       
1 37869U 11064C   16068.11309977  .00000016  00000-0  00000+0 0  9999
2 37869  64.5062 200.0068 0018636 277.3558  73.8694  2.13101991 33791
COSMOS 2478 (746)       
1 37938U 11071A   16068.12009076  .00000053  00000-0  00000+0 0  9993
2 37938  65.2083  80.6370 0014769 244.7235  76.0545  2.13088579 33404
COSMOS 2485 (747)       
1 39155U 13019A   16067.41177556  .00000015  00000-0  00000+0 0  9998
2 39155  64.6598 199.9324 0015493 239.1477 203.7640  2.13102038 22292
COSMOS 2492 (754)       
1 39620U 14012A   16067.44282953  .00000056  00000-0  10000-3 0  9990
2 39620  65.0717  80.4946 0017301 326.5890 173.0388  2.13103666 15244
COSMOS 2500 (755)       
1 40001U 14032A   16067.39568826  .00000057  00000-0  00000+0 0  9993
2 40001  65.0123  80.5281 0007054 226.8471 100.5275  2.13103045 13456
COSMOS 2501 (702K)      
1 40315U 14075A   16067.59901450 -.00000008  00000-0  00000+0 0  9991
2 40315  64.6654 321.6476 0016596 239.9854  45.1019  2.13101520  9860
